ONEWEB-0113             
1 48050U 21025J   21149.30817719 -.00205066  00000-0 -81204-1 0  9997
2 48050  87.6119 328.5458 0008629  35.3735 324.8030 14.30485247 11085
ONEWEB-0112             
1 48051U 21025K   21150.91667824 -.01344992  00000-0 -56428+0 0  9998
2 48051  87.6653 328.0695 0008556  50.0371  59.6399 14.29764430  1842
ONEWEB-0156             
1 48052U 21025L   21150.91667824 -.01295198  00000-0 -54163+0 0  9996
2 48052  87.6402 328.1136 0011723  43.1994 206.7147 14.29773030  1730
ONEWEB-0161             
1 48053U 21025M   21150.91667824 -.01373803  00000-0 -81526+0 0  9990
2 48053  87.5530 328.1530 0009951  50.6613  67.5928 14.11405894  1866
ONEWEB-0158             
1 48054U 21025N   21150.91667824 -.01302106  00000-0 -58709+0 0  9996
2 48054  87.6540 328.1153 0010590  52.3387  43.5155 14.25889404  1772
ONEWEB-0157             
1 48055U 21025P   21150.91667824 -.01414229  00000-0 -68268+0 0  9998
2 48055  87.6282 328.2381 0009613  36.3910  57.6415 14.22025268  1815
ONEWEB-0162             
1 48056U 21025Q   21150.91667824 -.01340054  00000-0 -79338+0 0  9993
2 48056  87.5621 328.1652 0009104  39.0716  36.3555 14.11442169  1754
ONEWEB-0155             
1 48057U 21025R   21150.91667824 -.01395299  00000-0 -49542+0 0  9999
2 48057  87.6857 328.0610 0012096  43.4188  50.9269 14.37792623  1773
ONEWEB-0149             
1 48058U 21025S   21150.91667824 -.01334762  00000-0 -75006+0 0  9992
2 48058  87.5882 328.1517 0011133  61.8042 221.1007 14.14257136  1831
ONEWEB-0148             
1 48059U 21025T   21150.91667824 -.01327068  00000-0 -59475+0 0  9996
2 48059  87.6516 328.0905 0010429  39.2179 195.7709 14.26275739  1864
ONEWEB-0160             
1 48060U 21025U   21150.91667824 -.01349385  00000-0 -76729+0 0  9995
2 48060  87.5815 328.1547 0007784  52.6362  59.9206 14.13673897  1779
ONEWEB-0163             
1 48061U 21025V   21150.91667824 -.01300107  00000-0 -47687+0 0  9996
2 48061  87.6985 328.0738 0012247  37.2123  48.1655 14.36477503  1740
ONEWEB-0159             
1 48062U 21025W   21150.91667824 -.01352298  00000-0 -60434+0 0  9990
2 48062  87.6586 328.1315 0007449  30.4669 296.6057 14.26509992  1842
ONEWEB-0164             
1 48063U 21025X   21150.91667824 -.01367593  00000-0 -71338+0 0  9990
2 48063  87.6094 328.1432 0012473  40.6433 135.0980 14.18351231  1755
ONEWEB-0167             
1 48064U 21025Y   21150.91667824 -.00726466  00000-0 -34566+0 0  9990
2 48064  87.5977 328.1356 0010577  59.5155  87.1168 14.22229253  1773
ONEWEB-0166             
1 48065U 21025Z   21150.91667824 -.01361438  00000-0 -57299+0 0  9994
2 48065  87.6777 328.1084 0011504  38.9647 238.0394 14.29631000  1850
ONEWEB-0151             
1 48066U 21025AA  21150.91667824 -.01348710  00000-0 -61791+0 0  9995
2 48066  87.6503 328.1368 0008304  33.5446  29.7042 14.25195664  1778
ONEWEB-0170             
1 48067U 21025AB  21149.42432749 -.00357369  00000-0 -14782+0 0  9993
2 48067  87.5639 328.5437 0010488  60.0263 300.1971 14.28969038 11064
ONEWEB-0168             
1 48068U 21025AC  21150.91667824 -.01355139  00000-0 -77659+0 0  9990
2 48068  87.5786 328.1464 0008515  50.4547 347.7683 14.13263672  1746
ONEWEB-0173             
1 48069U 21025AD  21150.91667824 -.01300019  00000-0 -50579+0 0  9990
2 48069  87.6968 328.0603 0007396  47.8382 343.6551 14.33513357  1746
ONEWEB-0171             
1 48070U 21025AE  21150.91667824 -.01413919  00000-0 -61747+0 0  9995
2 48070  87.6591 328.1139 0011329  43.6652 255.9716 14.27266563  1868
ONEWEB-0172             
1 48071U 21025AF  21150.91667824 -.01750252  00000-0 -37657+0 0  9993
2 48071  87.5773 327.9033 0007908  37.5235 345.6318 14.62438887  1771
ONEWEB-0174             
1 48072U 21025AG  21150.91667824 -.00659468  00000-0 -23435+0 0  9999
2 48072  87.7204 328.0515 0012272  20.9134  14.4665 14.36981297  1746
ONEWEB-0175             
1 48073U 21025AH  21150.91667824 -.01354904  00000-0 -77519+0 0  9990
2 48073  87.5620 328.1497 0010022  53.8959  74.2645 14.13344453  1742
ONEWEB-0177             
1 48074U 21025AJ  21150.91667824 -.01344098  00000-0 -47604+0 0  9996
2 48074  87.6986 328.0646 0012188  24.0757  87.8445 14.38365522  1740
ONEWEB-0178             
1 48075U 21025AK  21150.91667824 -.01294552  00000-0 -37954+0 0  9993
2 48075  87.7254 328.0542 0012567  22.8672 126.1435 14.47540522  1794
ONEWEB-0108             
1 48076U 21025AL  21150.91667824 -.01351062  00000-0 -55288+0 0  9994
2 48076  87.6908 328.0901 0011700  27.5107 136.7065 14.31047757  1748
ONEWEB-0169             
1 48077U 21025AM  21150.91667824 -.01356494  00000-0 -69354+0 0  9998
2 48077  87.6194 328.1488 0011593  37.1166 328.3955 14.19397524  1911
ONEWEB-0176             
1 48210U 21031A   21150.91667824 -.01123470  00000-0 -10406+0 0  9994
2 48210  87.4992 301.0102 0008852 138.7073 274.3120 14.97757289  1879
ONEWEB-0184             
1 48211U 21031B   21150.91667824 -.01163897  00000-0 -12342+0 0  9993
2 48211  87.4723 301.0425 0011204 127.1577 237.4418 14.92052623  1893
ONEWEB-0179             
1 48212U 21031C   21150.91667824 -.01112698  00000-0 -96152-1 0  9990
2 48212  87.5083 301.0101 0011004 145.8350 257.4589 15.00358196  1782
ONEWEB-0180             
1 48213U 21031D   21150.91667824 -.01165525  00000-0 -14898+0 0  9993
2 48213  87.4546 301.1101 0009162 133.2204 340.0438 14.84543658  1791
ONEWEB-0218             
1 48214U 21031E   21150.91667824 -.01118950  00000-0 -88083-1 0  9993
2 48214  87.5258 300.9638 0013438 116.3101  17.4907 15.03856713  1803
ONEWEB-0209             
1 48215U 21031F   21150.91667824 -.01120547  00000-0 -97584-1 0  9995
2 48215  87.5141 301.0056 0011016 135.2341  76.4964 15.00084579  1906
ONEWEB-0198             
1 48216U 21031G   21150.91667824 -.01123727  00000-0 -10792+0 0  9993
2 48216  87.4891 301.0078 0008157 131.9810 191.7112 14.96365772  1758
ONEWEB-0189             
1 48217U 21031H   21150.91667824 -.01170892  00000-0 -12674+0 0  9990
2 48217  87.4877 301.0744 0012213 133.7253 153.4826 14.91240444  1820
ONEWEB-0196             
1 48218U 21031J   21150.91667824 -.01155928  00000-0 -14465+0 0  9994
2 48218  87.4380 301.0742 0009130 136.6356  46.1023 14.85388565  1780
ONEWEB-0183             
1 48219U 21031K   21150.91667824 -.01118864  00000-0 -10789+0 0  9998
2 48219  87.4898 301.0174 0008047 135.1966 171.6202 14.96195399  1743
ONEWEB-0185             
1 48220U 21031L   21150.91667824 -.01166513  00000-0 -12107+0 0  9990
2 48220  87.4911 301.0597 0010967 123.1306 298.1655 14.92911581  1808
ONEWEB-0187             
1 48221U 21031M   21150.91667824 -.01162102  00000-0 -13214+0 0  9991
2 48221  87.4542 301.0544 0011481 140.4260 358.8334 14.89258599  1799
ONEWEB-0192             
1 48222U 21031N   21150.91667824 -.01165890  00000-0 -15111+0 0  9997
2 48222  87.4228 301.0823 0009144 129.0747 302.6249 14.83974276  1868
ONEWEB-0219             
1 48223U 21031P   21150.91667824 -.01106230  00000-0 -86873-1 0  9996
2 48223  87.5285 300.9607 0013229 117.4804 359.5125 15.03915417  1774
ONEWEB-0202             
1 48224U 21031Q   21150.91667824 -.01114522  00000-0 -94046-1 0  9991
2 48224  87.5174 300.9893 0012245 133.8166 164.3511 15.01248782  1783
ONEWEB-0204             
1 48225U 21031R   21150.91667824 -.01129978  00000-0 -11177+0 0  9995
2 48225  87.4848 301.0279 0008385 127.5358 128.5520 14.95232794  1795
ONEWEB-0205             
1 48226U 21031S   21150.91667824 -.01130450  00000-0 -12417+0 0  9991
2 48226  87.4649 301.0475 0012952 135.8909  80.5475 14.90544656  1796
ONEWEB-0206             
1 48227U 21031T   21150.91667824 -.01151440  00000-0 -14150+0 0  9990
2 48227  87.4410 301.0631 0009528 136.6274  96.3118 14.86112558  1747
ONEWEB-0182             
1 48228U 21031U   21150.91667824 -.00973764  00000-0 -68852-1 0  9991
2 48228  87.4794 300.9847 0008311 134.9796 344.7850 15.07970029  1752
ONEWEB-0186             
1 48229U 21031V   21150.91667824 -.01076936  00000-0 -86120-1 0  9996
2 48229  87.5073 300.9523 0009804 119.4804 146.5339 15.03205400  1740
ONEWEB-0181             
1 48230U 21031W   21150.91667824 -.01141239  00000-0 -13179+0 0  9999
2 48230  87.4613 301.0550 0011244 140.0052 313.5482 14.88586477  1742
ONEWEB-0188             
1 48231U 21031X   21150.91667824 -.01170376  00000-0 -15732+0 0  9991
2 48231  87.4050 301.0647 0009466 126.3575 191.4009 14.82478372  1785
ONEWEB-0220             
1 48232U 21031Y   21150.91667824 -.01124993  00000-0 -92871-1 0  9997
2 48232  87.5187 300.9746 0013242 123.2684 253.8049 15.02091073  1778
ONEWEB-0165             
1 48233U 21031Z   21150.91667824 -.01106871  00000-0 -94039-1 0  9991
2 48233  87.5216 300.9905 0011766 134.3581 133.1121 15.00976287  1742
ONEWEB-0199             
1 48234U 21031AA  21150.91667824 -.01158652  00000-0 -11590+0 0  9995
2 48234  87.4746 301.0219 0008883 117.7870  52.3531 14.94368291  1796
ONEWEB-0203             
1 48235U 21031AB  21150.91667824 -.01173656  00000-0 -13257+0 0  9999
2 48235  87.4594 301.0583 0012381 134.9604  67.0476 14.89542682  1812
ONEWEB-0197             
1 48236U 21031AC  21150.91667824 -.01169773  00000-0 -14318+0 0  9994
2 48236  87.4390 301.0670 0009383 144.3380 131.1596 14.86324461  1791
ONEWEB-0194             
1 48237U 21031AD  21150.91667824 -.01089762  00000-0 -95055-1 0  9993
2 48237  87.5097 300.9968 0009327 135.6096   6.8707 14.99959572  1782
ONEWEB-0193             
1 48238U 21031AE  21150.91667824 -.01130290  00000-0 -11762+0 0  9998
2 48238  87.4744 301.0275 0010374 120.6080 328.9620 14.93220090  1787
ONEWEB-0191             
1 48239U 21031AF  21150.91667824 -.01183188  00000-0 -14542+0 0  9992
2 48239  87.4400 301.0636 0010296 142.6145 168.6153 14.86180928  1908
ONEWEB-0195             
1 48240U 21031AG  21150.91667824 -.01171949  00000-0 -15502+0 0  9993
2 48240  87.4187 301.0850 0009573 124.4996 257.6335 14.83146096  1768
